STARLINK-30494          
1 57970U 23151G   26068.36049035 -.00001272  00000+0 -35691-4 0  9993
2 57970  43.0027 192.4566 0001155 241.5536 118.5200 15.28417441137406
STARLINK-34288          
1 64673U 25139K   26068.55074838  .00026758  00000+0  91259-3 0  9994
2 64673  53.1606 127.6292 0001552  69.0226 291.0941 15.30189984 40262
